[
    {
        "OBJECT_NAME": "GSAT0207 (GALILEO 15)",
        "OBJECT_ID": "2016-069A",
        "EPOCH": "2025-05-02T03:16:52.297824",
        "MEAN_MOTION": 1.70474121,
        "ECCENTRICITY": 0.0005926,
        "INCLINATION": 55.2527,
        "RA_OF_ASC_NODE": 112.4712,
        "ARG_OF_PERICENTER": 307.3654,
        "MEAN_ANOMALY": 52.5626,
        "EPHEMERIS_TYPE": 0,
        "CLASSIFICATION_TYPE": "U",
        "NORAD_CAT_ID": 41859,
        "ELEMENT_SET_NO": 999,
        "REV_AT_EPOCH": 5239,
        "BSTAR": 0,
        "MEAN_MOTION_DOT": 3.7e-07,
        "MEAN_MOTION_DDOT": 0
    },
    {
        "OBJECT_NAME": "GSAT0212 (GALILEO 16)",
        "OBJECT_ID": "2016-069B",
        "EPOCH": "2025-05-01T09:41:49.917408",
        "MEAN_MOTION": 1.7047428,
        "ECCENTRICITY": 0.0004488,
        "INCLINATION": 55.2498,
        "RA_OF_ASC_NODE": 112.4873,
        "ARG_OF_PERICENTER": 328.7889,
        "MEAN_ANOMALY": 31.166,
        "EPHEMERIS_TYPE": 0,
        "CLASSIFICATION_TYPE": "U",
        "NORAD_CAT_ID": 41860,
        "ELEMENT_SET_NO": 999,
        "REV_AT_EPOCH": 5263,
        "BSTAR": 0,
        "MEAN_MOTION_DOT": 3.6e-07,
        "MEAN_MOTION_DDOT": 0
    },
    {
        "OBJECT_NAME": "GSAT0213 (GALILEO 17)",
        "OBJECT_ID": "2016-069C",
        "EPOCH": "2025-05-02T22:41:10.351680",
        "MEAN_MOTION": 1.70474668,
        "ECCENTRICITY": 0.0005903,
        "INCLINATION": 55.253,
        "RA_OF_ASC_NODE": 112.452,
        "ARG_OF_PERICENTER": 293.0863,
        "MEAN_ANOMALY": 66.8351,
        "EPHEMERIS_TYPE": 0,
        "CLASSIFICATION_TYPE": "U",
        "NORAD_CAT_ID": 41861,
        "ELEMENT_SET_NO": 999,
        "REV_AT_EPOCH": 5252,
        "BSTAR": 0,
        "MEAN_MOTION_DOT": 4e-07,
        "MEAN_MOTION_DDOT": 0
    },
    {
        "OBJECT_NAME": "GSAT0214 (GALILEO 18)",
        "OBJECT_ID": "2016-069D",
        "EPOCH": "2025-05-03T02:10:49.305216",
        "MEAN_MOTION": 1.70474409,
        "ECCENTRICITY": 0.0004928,
        "INCLINATION": 55.2517,
        "RA_OF_ASC_NODE": 112.4411,
        "ARG_OF_PERICENTER": 297.5332,
        "MEAN_ANOMALY": 62.4008,
        "EPHEMERIS_TYPE": 0,
        "CLASSIFICATION_TYPE": "U",
        "NORAD_CAT_ID": 41862,
        "ELEMENT_SET_NO": 999,
        "REV_AT_EPOCH": 5265,
        "BSTAR": 0,
        "MEAN_MOTION_DOT": 4e-07,
        "MEAN_MOTION_DDOT": 0
    },
    {
        "OBJECT_NAME": "GSAT0215 (GALILEO 19)",
        "OBJECT_ID": "2017-079A",
        "EPOCH": "2025-05-03T13:56:48.746400",
        "MEAN_MOTION": 1.70474754,
        "ECCENTRICITY": 0.0001346,
        "INCLINATION": 55.2092,
        "RA_OF_ASC_NODE": 232.777,
        "ARG_OF_PERICENTER": 248.7515,
        "MEAN_ANOMALY": 111.2377,
        "EPHEMERIS_TYPE": 0,
        "CLASSIFICATION_TYPE": "U",
        "NORAD_CAT_ID": 43055,
        "ELEMENT_SET_NO": 999,
        "REV_AT_EPOCH": 4600,
        "BSTAR": 0,
        "MEAN_MOTION_DOT": -3.1e-07,
        "MEAN_MOTION_DDOT": 0
    },
    {
        "OBJECT_NAME": "GSAT0216 (GALILEO 20)",
        "OBJECT_ID": "2017-079B",
        "EPOCH": "2025-05-02T02:42:28.476576",
        "MEAN_MOTION": 1.70474878,
        "ECCENTRICITY": 0.0002437,
        "INCLINATION": 55.2102,
        "RA_OF_ASC_NODE": 232.8174,
        "ARG_OF_PERICENTER": 274.0377,
        "MEAN_ANOMALY": 85.9396,
        "EPHEMERIS_TYPE": 0,
        "CLASSIFICATION_TYPE": "U",
        "NORAD_CAT_ID": 43056,
        "ELEMENT_SET_NO": 999,
        "REV_AT_EPOCH": 4599,
        "BSTAR": 0,
        "MEAN_MOTION_DOT": -1.9e-07,
        "MEAN_MOTION_DDOT": 0
    },
    {
        "OBJECT_NAME": "GSAT0217 (GALILEO 21)",
        "OBJECT_ID": "2017-079C",
        "EPOCH": "2025-05-01T03:50:47.506848",
        "MEAN_MOTION": 1.70474745,
        "ECCENTRICITY": 0.000183,
        "INCLINATION": 55.2071,
        "RA_OF_ASC_NODE": 232.8416,
        "ARG_OF_PERICENTER": 304.9786,
        "MEAN_ANOMALY": 55.0079,
        "EPHEMERIS_TYPE": 0,
        "CLASSIFICATION_TYPE": "U",
        "NORAD_CAT_ID": 43057,
        "ELEMENT_SET_NO": 999,
        "REV_AT_EPOCH": 4596,
        "BSTAR": 0,
        "MEAN_MOTION_DOT": -1.3e-07,
        "MEAN_MOTION_DDOT": 0
    },
    {
        "OBJECT_NAME": "GSAT0218 (GALILEO 22)",
        "OBJECT_ID": "2017-079D",
        "EPOCH": "2025-05-01T23:12:21.102624",
        "MEAN_MOTION": 1.70474721,
        "ECCENTRICITY": 0.0003077,
        "INCLINATION": 55.2085,
        "RA_OF_ASC_NODE": 232.8173,
        "ARG_OF_PERICENTER": 269.1738,
        "MEAN_ANOMALY": 90.796,
        "EPHEMERIS_TYPE": 0,
        "CLASSIFICATION_TYPE": "U",
        "NORAD_CAT_ID": 43058,
        "ELEMENT_SET_NO": 999,
        "REV_AT_EPOCH": 4600,
        "BSTAR": 0,
        "MEAN_MOTION_DOT": -1.8e-07,
        "MEAN_MOTION_DDOT": 0
    },
    {
        "OBJECT_NAME": "GSAT0221 (GALILEO 25)",
        "OBJECT_ID": "2018-060A",
        "EPOCH": "2025-05-03T01:00:49.639680",
        "MEAN_MOTION": 1.70475659,
        "ECCENTRICITY": 0.0003648,
        "INCLINATION": 57.2754,
        "RA_OF_ASC_NODE": 352.8495,
        "ARG_OF_PERICENTER": 316.1162,
        "MEAN_ANOMALY": 43.894,
        "EPHEMERIS_TYPE": 0,
        "CLASSIFICATION_TYPE": "U",
        "NORAD_CAT_ID": 43564,
        "ELEMENT_SET_NO": 999,
        "REV_AT_EPOCH": 4217,
        "BSTAR": 0,
        "MEAN_MOTION_DOT": -1e-06,
        "MEAN_MOTION_DDOT": 0
    },
    {
        "OBJECT_NAME": "GSAT0222 (GALILEO 26)",
        "OBJECT_ID": "2018-060B",
        "EPOCH": "2025-05-02T02:06:38.580192",
        "MEAN_MOTION": 1.704751,
        "ECCENTRICITY": 0.0005423,
        "INCLINATION": 57.2757,
        "RA_OF_ASC_NODE": 352.8779,
        "ARG_OF_PERICENTER": 271.1414,
        "MEAN_ANOMALY": 88.8372,
        "EPHEMERIS_TYPE": 0,
        "CLASSIFICATION_TYPE": "U",
        "NORAD_CAT_ID": 43565,
        "ELEMENT_SET_NO": 999,
        "REV_AT_EPOCH": 4220,
        "BSTAR": 0,
        "MEAN_MOTION_DOT": -9.8e-07,
        "MEAN_MOTION_DDOT": 0
    },
    {
        "OBJECT_NAME": "GSAT0219 (GALILEO 23)",
        "OBJECT_ID": "2018-060C",
        "EPOCH": "2025-05-01T17:20:59.798976",
        "MEAN_MOTION": 1.70475488,
        "ECCENTRICITY": 0.000314,
        "INCLINATION": 57.2784,
        "RA_OF_ASC_NODE": 352.8895,
        "ARG_OF_PERICENTER": 331.7977,
        "MEAN_ANOMALY": 28.2269,
        "EPHEMERIS_TYPE": 0,
        "CLASSIFICATION_TYPE": "U",
        "NORAD_CAT_ID": 43566,
        "ELEMENT_SET_NO": 999,
        "REV_AT_EPOCH": 4217,
        "BSTAR": 0,
        "MEAN_MOTION_DOT": -9.8e-07,
        "MEAN_MOTION_DDOT": 0
    },
    {
        "OBJECT_NAME": "GSAT0220 (GALILEO 24)",
        "OBJECT_ID": "2018-060D",
        "EPOCH": "2025-05-01T22:38:57.506496",
        "MEAN_MOTION": 1.70475442,
        "ECCENTRICITY": 0.0003428,
        "INCLINATION": 57.2782,
        "RA_OF_ASC_NODE": 352.8829,
        "ARG_OF_PERICENTER": 321.8889,
        "MEAN_ANOMALY": 38.1279,
        "EPHEMERIS_TYPE": 0,
        "CLASSIFICATION_TYPE": "U",
        "NORAD_CAT_ID": 43567,
        "ELEMENT_SET_NO": 999,
        "REV_AT_EPOCH": 4216,
        "BSTAR": 0,
        "MEAN_MOTION_DOT": -9.8e-07,
        "MEAN_MOTION_DDOT": 0
    },
    {
        "OBJECT_NAME": "GSAT0223 (GALILEO 27)",
        "OBJECT_ID": "2021-116A",
        "EPOCH": "2025-05-02T02:01:18.413760",
        "MEAN_MOTION": 1.70475455,
        "ECCENTRICITY": 4.63e-05,
        "INCLINATION": 57.2679,
        "RA_OF_ASC_NODE": 352.7716,
        "ARG_OF_PERICENTER": 227.9547,
        "MEAN_ANOMALY": 308.916,
        "EPHEMERIS_TYPE": 0,
        "CLASSIFICATION_TYPE": "U",
        "NORAD_CAT_ID": 49809,
        "ELEMENT_SET_NO": 999,
        "REV_AT_EPOCH": 2117,
        "BSTAR": 0,
        "MEAN_MOTION_DOT": -9.8e-07,
        "MEAN_MOTION_DDOT": 0
    }
]