GSAT0207 (GALILEO 15)   
1 41859U 16069A   25122.13671641  .00000037  00000+0  00000+0 0  9998
2 41859  55.2527 112.4712 0005926 307.3654  52.5626  1.70474121 52395
GSAT0212 (GALILEO 16)   
1 41860U 16069B   25121.40404997  .00000036  00000+0  00000+0 0  9996
2 41860  55.2498 112.4873 0004488 328.7889  31.1660  1.70474280 52635
GSAT0213 (GALILEO 17)   
1 41861U 16069C   25122.94525870  .00000040  00000+0  00000+0 0  9996
2 41861  55.2530 112.4520 0005903 293.0863  66.8351  1.70474668 52521
GSAT0214 (GALILEO 18)   
1 41862U 16069D   25123.09084844  .00000040  00000+0  00000+0 0  9995
2 41862  55.2517 112.4411 0004928 297.5332  62.4008  1.70474409 52650
GSAT0215 (GALILEO 19)   
1 43055U 17079A   25123.58111975 -.00000031  00000+0  00000+0 0  9994
2 43055  55.2092 232.7770 0001346 248.7515 111.2377  1.70474754 46007
GSAT0216 (GALILEO 20)   
1 43056U 17079B   25122.11282959 -.00000019  00000+0  00000+0 0  9990
2 43056  55.2102 232.8174 0002437 274.0377  85.9396  1.70474878 45991
GSAT0217 (GALILEO 21)   
1 43057U 17079C   25121.16027207 -.00000013  00000+0  00000+0 0  9992
2 43057  55.2071 232.8416 0001830 304.9786  55.0079  1.70474745 45965
GSAT0218 (GALILEO 22)   
1 43058U 17079D   25121.96691091 -.00000018  00000+0  00000+0 0  9994
2 43058  55.2085 232.8173 0003077 269.1738  90.7960  1.70474721 46000
GSAT0221 (GALILEO 25)   
1 43564U 18060A   25123.04224120 -.00000100  00000+0  00000+0 0  9995
2 43564  57.2754 352.8495 0003648 316.1162  43.8940  1.70475659 42177
GSAT0222 (GALILEO 26)   
1 43565U 18060B   25122.08794653 -.00000098  00000+0  00000+0 0  9998
2 43565  57.2757 352.8779 0005423 271.1414  88.8372  1.70475100 42202
GSAT0219 (GALILEO 23)   
1 43566U 18060C   25121.72291434 -.00000098  00000+0  00000+0 0  9998
2 43566  57.2784 352.8895 0003140 331.7977  28.2269  1.70475488 42171
GSAT0220 (GALILEO 24)   
1 43567U 18060D   25121.94372114 -.00000098  00000+0  00000+0 0  9998
2 43567  57.2782 352.8829 0003428 321.8889  38.1279  1.70475442 42168
GSAT0223 (GALILEO 27)   
1 49809U 21116A   25122.08424090 -.00000098  00000+0  00000+0 0  9996
2 49809  57.2679 352.7716 0000463 227.9547 308.9160  1.70475455 21174
